OBJECT_NAME,OBJECT_ID,EPOCH,MEAN_MOTION,ECCENTRICITY,INCLINATION,RA_OF_ASC_NODE,ARG_OF_PERICENTER,MEAN_ANOMALY,EPHEMERIS_TYPE,CLASSIFICATION_TYPE,NORAD_CAT_ID,ELEMENT_SET_NO,REV_AT_EPOCH,BSTAR,MEAN_MOTION_DOT,MEAN_MOTION_DDOT
INTELSAT 902 (IS-902),2001-039A,2026-07-19T11:13:43.218048,1.00271071,.00041603,6.1951,71.3845,46.7622,297.4397,0,U,26900,999,9101,0,-.291E-5,0
INTELSAT 904 (IS-904),2002-007A,2026-07-19T09:36:20.104416,1.00270287,.00054385,6.9984,68.7946,27.8388,313.1487,0,U,27380,999,5208,0,-.234E-5,0
DIRECTV 5 (TEMPO 1),2002-023A,2026-07-19T09:25:38.579232,1.00271874,.00030628,4.9582,74.9074,37.4573,216.1179,0,U,27426,999,8844,0,-.64E-6,0
INTELSAT 905 (IS-905),2002-027A,2026-07-19T17:39:30.046752,1.00273297,.0003594,6.8332,69.4042,49.6380,306.1464,0,U,27438,999,5168,0,.86E-6,0
GALAXY 3C (G-3C),2002-030A,2026-07-19T19:34:12.802080,1.00271201,.0001727,3.8167,77.5563,30.7244,28.0275,0,U,27445,999,4682,0,-.158E-5,0
INTELSAT 906 (IS-906),2002-041A,2026-07-19T18:43:38.447904,1.00270800,.0003526,5.8822,72.5153,28.0552,182.0645,0,U,27513,999,8735,0,.6E-7,0
GALAXY 13 (HORIZONS-1),2003-044A,2026-07-19T17:35:45.405888,1.00273319,.0002095,1.5003,83.4402,38.3181,289.6919,0,U,27954,999,4689,0,.128E-5,0
INTELSAT 10-02,2004-022A,2026-07-19T19:13:38.515872,1.00271375,.0000163,0.0539,254.2814,312.6618,18.0434,0,U,28358,999,8088,0,-.15E-6,0
DIRECTV 8,2005-019A,2026-07-19T14:46:38.843040,1.00272431,.0003079,0.0198,61.6366,61.9497,276.4168,0,U,28659,999,7739,0,-.3E-7,0
GALAXY 28 (G-28),2005-022A,2026-07-19T19:53:33.446112,1.00270977,.0002453,3.3795,78.5271,35.7801,94.5934,0,U,28702,999,5230,0,-.205E-5,0
GALAXY 16 (G-16),2006-023A,2026-07-19T14:38:38.662944,1.00271621,.0002674,0.0249,142.1160,336.2625,299.6642,0,U,29236,999,7329,0,-.131E-5,0
DIRECTV 9S,2006-043A,2026-07-19T12:41:49.697088,1.00271628,.0005084,2.5024,80.5139,33.2794,272.7747,0,U,29494,999,5170,0,-.119E-5,0
GALAXY 17 (G-17),2007-016B,2026-07-19T19:36:57.539232,1.00271083,.0003747,3.0523,79.4908,37.6039,29.7157,0,U,31307,999,7013,0,-.211E-5,0
INTELSAT 11 (IS-11),2007-044B,2026-07-19T19:56:10.694976,0.99053086,.000441,3.6485,78.2739,99.3868,41.2514,0,U,32253,999,6877,0,-.234E-5,0
HORIZONS-2,2007-063B,2026-07-19T20:01:38.728128,1.00272677,.000363,2.6843,80.2275,18.8945,65.1022,0,U,32388,999,6814,0,-.258E-5,0
DIRECTV 11,2008-013A,2026-07-19T14:38:38.662944,1.00270671,.0000143,0.0030,247.2069,167.6445,3.0106,0,U,32729,999,4591,0,-.129E-5,0
GALAXY 18 (G-18),2008-024A,2026-07-19T17:43:29.665056,1.00273194,.0002882,0.0096,2.7298,116.3638,321.2846,0,U,32951,999,4617,0,.21E-6,0
GALAXY 19 (G-19),2008-045A,2026-07-19T19:33:27.874080,1.00271039,.0002564,0.0463,242.8627,245.7551,5.3392,0,U,33376,999,6523,0,-.142E-5,0
FM-5,2009-034A,2026-07-19T19:36:42.561792,1.00271120,.0000945,0.0420,247.3728,126.1889,132.0422,0,U,35493,999,4697,0,-.203E-5,0
INTELSAT 14 (IS-14),2009-064A,2026-07-19T19:45:38.583072,1.00272235,.0002535,0.0164,47.3012,74.0294,67.6785,0,U,36097,999,6093,0,-.277E-5,0
INTELSAT 15 (IS-15),2009-067A,2026-07-19T20:25:34.049856,1.00272458,.0002254,0.0120,52.2278,64.7806,212.1611,0,U,36106,999,4155,0,-.188E-5,0
DIRECTV 12,2009-075A,2026-07-19T14:38:38.662944,1.00271081,.0000194,0.0397,213.0974,13.9306,187.3005,0,U,36131,999,4687,0,-.107E-5,0
INTELSAT 16 (IS-16),2010-006A,2026-07-19T20:25:38.814816,1.00271576,.0002453,0.0217,66.2257,69.9818,31.6245,0,U,36397,999,5998,0,-.248E-5,0
XM-5,2010-053A,2026-07-19T14:46:38.843040,1.00274411,.0001239,0.0631,264.4500,312.5530,186.8643,0,U,37185,999,5780,0,-.27E-6,0
INTELSAT 17 (IS-17),2010-065B,2026-07-19T20:20:04.578144,1.00272690,.0002574,0.0096,94.8336,36.2686,177.5453,0,U,37238,999,5357,0,-.5E-7,0
INTELSAT 28 (IS-28),2011-016A,2026-07-19T19:29:38.420736,1.00271634,.0003884,1.8886,82.2293,41.8885,74.1781,0,U,37392,999,5361,0,-.229E-5,0
INTELSAT 18 (IS-18),2011-056A,2026-07-19T19:09:52.636032,1.00270474,.0001866,0.0371,234.7213,251.0791,279.2411,0,U,37834,999,5413,0,.49E-6,0
INTELSAT 22 (IS-22),2012-011A,2026-07-19T20:21:49.408992,1.00272078,.0001841,0.0220,64.3766,67.3772,183.4336,0,U,38098,999,751,0,-.62E-6,0
INTELSAT 19 (IS-19),2012-030A,2026-07-19T19:05:53.017728,1.00272840,.0003033,0.0160,37.0445,81.0671,271.9225,0,U,38356,999,5077,0,-.6E-6,0
INTELSAT 20 (IS-20),2012-043A,2026-07-19T20:20:49.506144,1.00271175,.0001449,0.0165,77.2318,110.0452,124.0581,0,U,38740,999,5107,0,-.27E-6,0
INTELSAT 21 (IS-21),2012-045A,2026-07-19T19:53:38.783040,1.00271723,.0001755,0.0408,245.8610,242.7223,49.4437,0,U,38749,999,5085,0,-.288E-5,0
